ONEWEB-0385             
1 49311U 21090AJ  24011.26820564  .00000120  00000+0  26207-3 0  9993
2 49311  87.9191  91.1940 0001384 104.1770 255.9517 13.20772450112598
ONEWEB-0386             
1 49312U 21090AK  24011.58858924 -.00000098  00000+0 -27384-3 0  9993
2 49312  87.9183  91.1355 0001484 109.6568 250.4725 13.20772635112659
ONEWEB-0387             
1 49313U 21090AL  24011.26980639  .00000449  00000+0  10719-2 0  9999
2 49313  87.9190  91.2510 0001512  92.1919 267.9388 13.20774294112617
ONEWEB-0388             
1 49314U 21090AM  24011.36572825  .00000021  00000+0  20753-4 0  9992
2 49314  87.9209 121.7025 0001531 110.1566 249.9731 13.19727610109312
ONEWEB-0389             
1 50469U 21132A   24011.50500048  .00000054  00000+0  10543-3 0  9997
2 50469  87.9212 182.3700 0001268  74.0054 286.1217 13.17648264101183
ONEWEB-0390             
1 50470U 21132B   24011.50657652  .00000071  00000+0  15047-3 0  9996
2 50470  87.9212 182.3776 0001725  80.8615 279.2712 13.17648224101183
ONEWEB-0391             
1 50471U 21132C   24011.50815857  .00000043  00000+0  78105-4 0  9994
2 50471  87.9218 182.3472 0001083  80.1993 279.9261 13.17647947101189
ONEWEB-0392             
1 50472U 21132D   24011.53821095  .00000018  00000+0  13356-4 0  9998
2 50472  87.9206 182.3649 0001321  79.0725 281.0555 13.17650785101227
